1 25994U 99068A   08290.60839050  .00000136  00000-0  40263-4 0   474
2 25994  98.2010   2.9902 0001575  89.8741 270.2648 14.57119041469683
1 25994U 99068A   08290.74572872  .00000081  00000-0  28049-4 0   483
2 25994  98.2013   3.1257 0001559  89.2224 270.9139 14.57118753469708
1 25994U 99068A   08291.15774440  .00000087  00000-0  29280-4 0   488
2 25994  98.2021   3.5310 0001551  89.6635 270.4753 14.57118869469764
1 25994U 99068A   08291.36375179  .00000084  00000-0  28727-4 0   490
2 25994  98.2023   3.7336 0001552  89.1437 270.9936 14.57118879469794
1 25994U 99068A   08291.84443612  .00000094  00000-0  31006-4 0   508
2 25994  98.2034   4.2077 0001583  88.7236 271.4130 14.57118952469862
1 25994U 99068A   08291.98177478  .00000078  00000-0  27446-4 0   513
2 25994  98.2037   4.3430 0001593  87.7872 272.3499 14.57118842469883
1 25994U 99068A   08292.25645180  .00000067  00000-0  24867-4 0   527
2 25994  98.2044   4.6131 0001587  87.0964 273.0422 14.57118927469923
1 25994U 99068A   08292.87447451  .00000008  00000-0  11718-4 0   533
2 25994  98.2063   5.2234 0001607  87.3464 272.7910 14.57118691470014
1 25994U 99068A   08293.21782081 -.00000017  00000-0  61883-5 0   544
2 25994  98.2070   5.5612 0001603  87.0153 273.1237 14.57118643470062
1 25994U 99068A   08293.42382829 -.00000038  00000-0  15312-5 0   553
2 25994  98.2074   5.7640 0001604  86.5490 273.5886 14.57118517470095
1 25994U 99068A   08293.83584361 -.00000061  00000-0 -35189-5 0   565
2 25994  98.2082   6.1710 0001607  86.7274 273.4099 14.57118361470151
1 25994U 99068A   08294.11052078 -.00000022  00000-0  51819-5 0   577
2 25994  98.2100   6.4430 0001605  85.3092 274.8301 14.57118490470193
1 25994U 99068A   08294.52253586  .00000021  00000-0  14679-4 0   580
2 25994  98.2112   6.8484 0001585  86.0925 274.0478 14.57118819470258
1 25994U 99068A   08294.79721221 -.00000008  00000-0  83850-5 0   590
2 25994  98.2123   7.1203 0001598  85.9495 274.1882 14.57118670470296
1 25994U 99068A   08295.07188903  .00000025  00000-0  15533-4 0   608
2 25994  98.2127   7.3912 0001591  85.9338 274.2042 14.57118803470330
1 25994U 99068A   08295.27789663  .00000055  00000-0  22312-4 0   617
2 25994  98.2134   7.5940 0001577  85.4381 274.7008 14.57119018470367
1 25994U 99068A   08295.82724980  .00000048  00000-0  20737-4 0   621
2 25994  98.2140   8.1364 0001594  84.2467 275.8905 14.57119058470443
1 25994U 99068A   08296.17059604  .00000058  00000-0  22959-4 0   634
2 25994  98.2136   8.4749 0001582  81.8489 278.2902 14.57119238470491
1 25994U 99068A   08296.51394165  .00000096  00000-0  31365-4 0   640
2 25994  98.2138   8.8136 0001581  82.3878 277.7509 14.57119482470548
1 25994U 99068A   08296.78861814  .00000075  00000-0  26774-4 0   655
2 25994  98.2137   9.0843 0001586  81.5609 278.5762 14.57119412470580
1 25994U 99068A   08297.13196426  .00000082  00000-0  28217-4 0   668
2 25994  98.2135   9.4227 0001565  81.2685 278.8697 14.57119490470638
1 25994U 99068A   08297.88735171  .00006047  00000-0  13504-2 0   686
2 25994  98.2174  10.1709 0001751  44.7218 315.5719 14.57132425470747
1 25994U 99068A   08298.16200176  .00000714  00000-0  16845-3 0   698
2 25994  98.2189  10.4394 0001562  83.5708 276.5684 14.57120354470780
1 25994U 99068A   08298.43667790  .00000411  00000-0  10131-3 0   705
2 25994  98.2194  10.7100 0001593  81.4419 278.6939 14.57120000470823
1 25994U 99068A   08298.78002362  .00000043  00000-0  19699-4 0   712
2 25994  98.2205  11.0495 0001583  80.3470 279.7870 14.57119225470879
1 25994U 99068A   08298.91736267 -.00000292  00000-0 -54646-4 0   725
2 25994  98.2212  11.1852 0001591  80.1531 279.9824 14.57118213470899
1 25994U 99068A   08299.05470155 -.00000264  00000-0 -48439-4 0   724
2 25994  98.2215  11.3206 0001588  79.7713 280.3665 14.57118213470911
1 25994U 99068A   08299.32937840 -.00000257  00000-0 -46938-4 0   738
2 25994  98.2220  11.5915 0001601  78.8971 281.2410 14.57118152470952
1 25994U 99068A   08299.81006249 -.00000356  00000-0 -68959-4 0   740
2 25994  98.2236  12.0669 0001614  77.6004 282.5342 14.57117530471025
1 25994U 99068A   08299.94740161 -.00000452  00000-0 -90298-4 0   751
2 25994  98.2240  12.2026 0001632  78.0985 282.0382 14.57117019471045
1 25994U 99068A   08300.08474042 -.00000418  00000-0 -82711-4 0   754
2 25994  98.2242  12.3381 0001623  77.9752 282.1635 14.57117058471069
1 25994U 99068A   08300.42808666 -.00000282  00000-0 -52531-4 0   762
2 25994  98.2243  12.6769 0001587  77.5921 282.5486 14.57117485471114
