OBJECT_NAME,OBJECT_ID,EPOCH,MEAN_MOTION,ECCENTRICITY,INCLINATION,RA_OF_ASC_NODE,ARG_OF_PERICENTER,MEAN_ANOMALY,EPHEMERIS_TYPE,CLASSIFICATION_TYPE,NORAD_CAT_ID,ELEMENT_SET_NO,REV_AT_EPOCH,BSTAR,MEAN_MOTION_DOT,MEAN_MOTION_DDOT
TERRA,1999-068A,2008-10-16T14:36:04.939200,14.57119041,.0001575,98.2010,2.9902,89.8741,270.2648,0,U,25994,47,46968,.40263E-4,.136E-5,0
TERRA,1999-068A,2008-10-16T17:53:50.961408,14.57118753,.0001559,98.2013,3.1257,89.2224,270.9139,0,U,25994,48,46970,.28049E-4,.81E-6,0
TERRA,1999-068A,2008-10-17T03:47:09.116160,14.57118869,.0001551,98.2021,3.5310,89.6635,270.4753,0,U,25994,48,46976,.2928E-4,.87E-6,0
TERRA,1999-068A,2008-10-17T08:43:48.154656,14.57118879,.0001552,98.2023,3.7336,89.1437,270.9936,0,U,25994,49,46979,.28727E-4,.84E-6,0
TERRA,1999-068A,2008-10-17T20:15:59.280768,14.57118952,.0001583,98.2034,4.2077,88.7236,271.4130,0,U,25994,50,46986,.31006E-4,.94E-6,0
TERRA,1999-068A,2008-10-17T23:33:45.340992,14.57118842,.0001593,98.2037,4.3430,87.7872,272.3499,0,U,25994,51,46988,.27446E-4,.78E-6,0
TERRA,1999-068A,2008-10-18T06:09:17.435520,14.57118927,.0001587,98.2044,4.6131,87.0964,273.0422,0,U,25994,52,46992,.24867E-4,.67E-6,0
TERRA,1999-068A,2008-10-18T20:59:14.597664,14.57118691,.0001607,98.2063,5.2234,87.3464,272.7910,0,U,25994,53,47001,.11718E-4,.8E-7,0
TERRA,1999-068A,2008-10-19T05:13:39.717984,14.57118643,.0001603,98.2070,5.5612,87.0153,273.1237,0,U,25994,54,47006,.61883E-5,-.17E-6,0
TERRA,1999-068A,2008-10-19T10:10:18.764256,14.57118517,.0001604,98.2074,5.7640,86.5490,273.5886,0,U,25994,55,47009,.15312E-5,-.38E-6,0
TERRA,1999-068A,2008-10-19T20:03:36.887904,14.57118361,.0001607,98.2082,6.1710,86.7274,273.4099,0,U,25994,56,47015,-.35189E-5,-.61E-6,0
TERRA,1999-068A,2008-10-20T02:39:08.995392,14.57118490,.0001605,98.2100,6.4430,85.3092,274.8301,0,U,25994,57,47019,.51819E-5,-.22E-6,0
TERRA,1999-068A,2008-10-20T12:32:27.098304,14.57118819,.0001585,98.2112,6.8484,86.0925,274.0478,0,U,25994,58,47025,.14679E-4,.21E-6,0
TERRA,1999-068A,2008-10-20T19:07:59.134944,14.57118670,.0001598,98.2123,7.1203,85.9495,274.1882,0,U,25994,59,47029,.8385E-5,-.8E-7,0
TERRA,1999-068A,2008-10-21T01:43:31.212192,14.57118803,.0001591,98.2127,7.3912,85.9338,274.2042,0,U,25994,60,47033,.15533E-4,.25E-6,0
TERRA,1999-068A,2008-10-21T06:40:10.268832,14.57119018,.0001577,98.2134,7.5940,85.4381,274.7008,0,U,25994,61,47036,.22312E-4,.55E-6,0
TERRA,1999-068A,2008-10-21T19:51:14.382720,14.57119058,.0001594,98.2140,8.1364,84.2467,275.8905,0,U,25994,62,47044,.20737E-4,.48E-6,0
TERRA,1999-068A,2008-10-22T04:05:39.497856,14.57119238,.0001582,98.2136,8.4749,81.8489,278.2902,0,U,25994,63,47049,.22959E-4,.58E-6,0
TERRA,1999-068A,2008-10-22T12:20:04.558560,14.57119482,.0001581,98.2138,8.8136,82.3878,277.7509,0,U,25994,64,47054,.31365E-4,.96E-6,0
TERRA,1999-068A,2008-10-22T18:55:36.607296,14.57119412,.0001586,98.2137,9.0843,81.5609,278.5762,0,U,25994,65,47058,.26774E-4,.75E-6,0
TERRA,1999-068A,2008-10-23T03:10:01.712064,14.57119490,.0001565,98.2135,9.4227,81.2685,278.8697,0,U,25994,66,47063,.28217E-4,.82E-6,0
TERRA,1999-068A,2008-10-23T21:17:47.187744,14.57132425,.0001751,98.2174,10.1709,44.7218,315.5719,0,U,25994,68,47074,.13504E-2,.6047E-4,0
TERRA,1999-068A,2008-10-24T03:53:16.952064,14.57120354,.0001562,98.2189,10.4394,83.5708,276.5684,0,U,25994,69,47078,.16845E-3,.714E-5,0
TERRA,1999-068A,2008-10-24T10:28:48.970560,14.57120000,.0001593,98.2194,10.7100,81.4419,278.6939,0,U,25994,70,47082,.10131E-3,.411E-5,0
TERRA,1999-068A,2008-10-24T18:43:14.040768,14.57119225,.0001583,98.2205,11.0495,80.3470,279.7870,0,U,25994,71,47087,.19699E-4,.43E-6,0
TERRA,1999-068A,2008-10-24T22:01:00.134688,14.57118213,.0001591,98.2212,11.1852,80.1531,279.9824,0,U,25994,72,47089,-.54646E-4,-.292E-5,0
TERRA,1999-068A,2008-10-25T01:18:46.213920,14.57118213,.0001588,98.2215,11.3206,79.7713,280.3665,0,U,25994,72,47091,-.48439E-4,-.264E-5,0
TERRA,1999-068A,2008-10-25T07:54:18.293760,14.57118152,.0001601,98.2220,11.5915,78.8971,281.2410,0,U,25994,73,47095,-.46938E-4,-.257E-5,0
TERRA,1999-068A,2008-10-25T19:26:29.399136,14.57117530,.0001614,98.2236,12.0669,77.6004,282.5342,0,U,25994,74,47102,-.68959E-4,-.356E-5,0
TERRA,1999-068A,2008-10-25T22:44:15.499104,14.57117019,.0001632,98.2240,12.2026,78.0985,282.0382,0,U,25994,75,47104,-.90298E-4,-.452E-5,0
TERRA,1999-068A,2008-10-26T02:02:01.572288,14.57117058,.0001623,98.2242,12.3381,77.9752,282.1635,0,U,25994,75,47106,-.82711E-4,-.418E-5,0
TERRA,1999-068A,2008-10-26T10:16:26.687424,14.57117485,.0001587,98.2243,12.6769,77.5921,282.5486,0,U,25994,76,47111,-.52531E-4,-.282E-5,0
